{"type": "FeatureCollection", "features": [ {"type": "Feature", "properties": {"norad_id": 28649, "name": "IRS-P5 (CARTOSAT-1)", "group": "resource", "lat": 20.422599648460704, "lon": 21.755476114321937, "alt_km": 596.2959969621734, "timestamp": "2025-12-24T16:52:41.156765+00:00", "meta": {"OBJECT_NAME": "IRS-P5 (CARTOSAT-1)", "OBJECT_ID": "2005-017A", "EPOCH": "2025-12-24T02:17:04.481664", "MEAN_MOTION": 14.90440964, "ECCENTRICITY": 5.558e-05, "INCLINATION": 97.5482, "RA_OF_ASC_NODE": 24.0044, "ARG_OF_PERICENTER": 59.793, "MEAN_ANOMALY": 300.3343, "EPHEMERIS_TYPE": 0, "CLASSIFICATION_TYPE": "U", "NORAD_CAT_ID": 28649, "ELEMENT_SET_NO": 999, "REV_AT_EPOCH": 11773, "BSTAR": 0.00016929981, "MEAN_MOTION_DOT": 1.598e-05, "MEAN_MOTION_DDOT": 0}, "tle": {"line1": "1 28649U 05017A   25358.09519076  .00001598  00000+0  16930-3 0  9996", "line2": "2 28649  97.5482  24.0044 0000555  59.7930 300.3343 14.90440964117734"}}, "geometry": {"type": "Point", "coordinates": [21.755476114321937, 20.422599648460704]}}, {"type": "Feature", "properties": {"norad_id": 28893, "name": "SINAH 1", "group": "resource", "lat": -42.61735248503363, "lon": 134.97485918750186, "alt_km": 696.0938464431692, "timestamp": "2025-12-24T16:52:41.156777+00:00", "meta": {"OBJECT_NAME": "SINAH 1", "OBJECT_ID": "2005-043D", "EPOCH": "2025-12-24T07:13:59.450592", "MEAN_MOTION": 14.63974193, "ECCENTRICITY": 0.00157145, "INCLINATION": 98.2609, "RA_OF_ASC_NODE": 126.8899, "ARG_OF_PERICENTER": 103.3079, "MEAN_ANOMALY": 256.9876, "EPHEMERIS_TYPE": 0, "CLASSIFICATION_TYPE": "U", "NORAD_CAT_ID": 28893, "ELEMENT_SET_NO": 999, "REV_AT_EPOCH": 7493, "BSTAR": 9.516032e-05, "MEAN_MOTION_DOT": 4.5e-06, "MEAN_MOTION_DDOT": 0}, "tle": {"line1": "1 28893U 05043D   25358.30138253  .00000450  00000+0  95160-4 0  9993", "line2": "2 28893  98.2609 126.8899 0015714 103.3079 256.9876 14.63974193 74933"}}, "geometry": {"type": "Point", "coordinates": [134.97485918750186, -42.61735248503363]}}, {"type": "Feature", "properties": {"norad_id": 29079, "name": "EROS B", "group": "resource", "lat": -31.608672904742484, "lon": -68.67354359028211, "alt_km": 359.34646739426626, "timestamp": "2025-12-24T16:52:41.156789+00:00", "meta": {"OBJECT_NAME": "EROS B", "OBJECT_ID": "2006-014A", "EPOCH": "2025-12-24T06:48:48.737952", "MEAN_MOTION": 15.71995439, "ECCENTRICITY": 0.00042343, "INCLINATION": 97.3454, "RA_OF_ASC_NODE": 115.4383, "ARG_OF_PERICENTER": 312.0616, "MEAN_ANOMALY": 48.0286, "EPHEMERIS_TYPE": 0, "CLASSIFICATION_TYPE": "U", "NORAD_CAT_ID": 29079, "ELEMENT_SET_NO": 999, "REV_AT_EPOCH": 9261, "BSTAR": 0.0014283849, "MEAN_MOTION_DOT": 0.00190097, "MEAN_MOTION_DDOT": 0}, "tle": {"line1": "1 29079U 06014A   25358.28389743  .00190097  00000+0  14284-2 0  9991", "line2": "2 29079  97.3454 115.4383 0004234 312.0616  48.0286 15.71995439 92617"}}, "geometry": {"type": "Point", "coordinates": [-68.67354359028211, -31.608672904742484]}}, {"type": "Feature", "properties": {"norad_id": 29228, "name": "RESURS-DK 1", "group": "resource", "lat": 3.4369864075964216, "lon": -110.33780760615348, "alt_km": 529.8860870837525, "timestamp": "2025-12-24T16:52:41.156801+00:00", "meta": {"OBJECT_NAME": "RESURS-DK 1", "OBJECT_ID": "2006-021A", "EPOCH": "2025-12-24T04:59:17.537568", "MEAN_MOTION": 15.12222014, "ECCENTRICITY": 0.00068848, "INCLINATION": 69.9336, "RA_OF_ASC_NODE": 72.1999, "ARG_OF_PERICENTER": 248.594, "MEAN_ANOMALY": 111.4492, "EPHEMERIS_TYPE": 0, "CLASSIFICATION_TYPE": "U", "NORAD_CAT_ID": 29228, "ELEMENT_SET_NO": 999, "REV_AT_EPOCH": 7611, "BSTAR": 0.00017491862, "MEAN_MOTION_DOT": 2.923e-05, "MEAN_MOTION_DDOT": 0}, "tle": {"line1": "1 29228U 06021A   25358.20784187  .00002923  00000+0  17492-3 0  9993", "line2": "2 29228  69.9336  72.1999 0006884 248.5940 111.4492 15.12222014 76113"}}, "geometry": {"type": "Point", "coordinates": [-110.33780760615348, 3.4369864075964216]}}, {"type": "Feature", "properties": {"norad_id": 29268, "name": "ARIRANG-2 (KOMPSAT-2)", "group": "resource", "lat": -63.73945966388016, "lon": -9.592773822227306, "alt_km": 677.3484292771491, "timestamp": "2025-12-24T16:52:41.156813+00:00", "meta": {"OBJECT_NAME": "ARIRANG-2 (KOMPSAT-2)", "OBJECT_ID": "2006-031A", "EPOCH": "2025-12-24T08:07:37.154208", "MEAN_MOTION": 14.64503479, "ECCENTRICITY": 0.00131452, "INCLINATION": 97.8254, "RA_OF_ASC_NODE": 186.2459, "ARG_OF_PERICENTER": 269.1572, "MEAN_ANOMALY": 214.452, "EPHEMERIS_TYPE": 0, "CLASSIFICATION_TYPE": "U", "NORAD_CAT_ID": 29268, "ELEMENT_SET_NO": 999, "REV_AT_EPOCH": 3588, "BSTAR": 9.0663567e-05, "MEAN_MOTION_DOT": 4.36e-06, "MEAN_MOTION_DDOT": 0}, "tle": {"line1": "1 29268U 06031A   25358.33862447  .00000436  00000+0  90664-4 0  9998", "line2": "2 29268  97.8254 186.2459 0013145 269.1572 214.4520 14.64503479 35880"}}, "geometry": {"type": "Point", "coordinates": [-9.592773822227306, -63.73945966388016]}}, {"type": "Feature", "properties": {"norad_id": 29709, "name": "LAPAN-TUBSAT", "group": "resource", "lat": 10.389216299234343, "lon": -12.395115599339157, "alt_km": 604.7772036441074, "timestamp": "2025-12-24T16:52:41.156824+00:00", "meta": {"OBJECT_NAME": "LAPAN-TUBSAT", "OBJECT_ID": "2007-001A", "EPOCH": "2025-12-24T05:30:58.817088", "MEAN_MOTION": 14.85688106, "ECCENTRICITY": 0.00132997, "INCLINATION": 98.1262, "RA_OF_ASC_NODE": 348.6228, "ARG_OF_PERICENTER": 40.0682, "MEAN_ANOMALY": 320.1511, "EPHEMERIS_TYPE": 0, "CLASSIFICATION_TYPE": "U", "NORAD_CAT_ID": 29709, "ELEMENT_SET_NO": 999, "REV_AT_EPOCH": 2517, "BSTAR": 9.0248426e-05, "MEAN_MOTION_DOT": 7.26e-06, "MEAN_MOTION_DDOT": 0}, "tle": {"line1": "1 29709U 07001A   25358.22984742  .00000726  00000+0  90248-4 0  9997", "line2": "2 29709  98.1262 348.6228 0013299  40.0682 320.1511 14.85688106 25179"}}, "geometry": {"type": "Point", "coordinates": [-12.395115599339157, 10.389216299234343]}}, {"type": "Feature", "properties": {"norad_id": 31113, "name": "HAIYANG-1B", "group": "resource", "lat": 61.8756961552917, "lon": -33.42705472994551, "alt_km": 777.4556614538806, "timestamp": "2025-12-24T16:52:41.156836+00:00", "meta": {"OBJECT_NAME": "HAIYANG-1B", "OBJECT_ID": "2007-010A", "EPOCH": "2025-12-24T04:50:17.446848", "MEAN_MOTION": 14.30968707, "ECCENTRICITY": 0.00136545, "INCLINATION": 98.3328, "RA_OF_ASC_NODE": 342.0068, "ARG_OF_PERICENTER": 5.2041, "MEAN_ANOMALY": 354.9282, "EPHEMERIS_TYPE": 0, "CLASSIFICATION_TYPE": "U", "NORAD_CAT_ID": 31113, "ELEMENT_SET_NO": 999, "REV_AT_EPOCH": 97560, "BSTAR": 5.8730082e-05, "MEAN_MOTION_DOT": 1.13e-06, "MEAN_MOTION_DDOT": 0}, "tle": {"line1": "1 31113U 07010A   25358.20159082  .00000113  00000+0  58730-4 0  9998", "line2": "2 31113  98.3328 342.0068 0013654   5.2041 354.9282 14.30968707975603"}}, "geometry": {"type": "Point", "coordinates": [-33.42705472994551, 61.8756961552917]}}, {"type": "Feature", "properties": {"norad_id": 31598, "name": "COSMO-SKYMED 1", "group": "resource", "lat": 41.59752955783478, "lon": 177.1150961048354, "alt_km": 575.6497089970226, "timestamp": "2025-12-24T16:52:41.156847+00:00", "meta": {"OBJECT_NAME": "COSMO-SKYMED 1", "OBJECT_ID": "2007-023A", "EPOCH": "2025-12-24T07:03:28.931904", "MEAN_MOTION": 14.9584984, "ECCENTRICITY": 0.00013371, "INCLINATION": 97.884, "RA_OF_ASC_NODE": 183.7697, "ARG_OF_PERICENTER": 78.543, "MEAN_ANOMALY": 281.5941, "EPHEMERIS_TYPE": 0, "CLASSIFICATION_TYPE": "U", "NORAD_CAT_ID": 31598, "ELEMENT_SET_NO": 999, "REV_AT_EPOCH": 363, "BSTAR": 0.00029869861, "MEAN_MOTION_DOT": 3.278e-05, "MEAN_MOTION_DDOT": 0}, "tle": {"line1": "1 31598U 07023A   25358.29408486  .00003278  00000+0  29870-3 0  9990", "line2": "2 31598  97.8840 183.7697 0001337  78.5430 281.5941 14.95849840  3630"}}, "geometry": {"type": "Point", "coordinates": [177.1150961048354, 41.59752955783478]}}, {"type": "Feature", "properties": {"norad_id": 31698, "name": "TERRASAR-X", "group": "resource", "lat": -18.57132956060267, "lon": 6.426430378415583, "alt_km": 513.6780620743202, "timestamp": "2025-12-24T16:52:41.156858+00:00", "meta": {"OBJECT_NAME": "TERRASAR-X", "OBJECT_ID": "2007-026A", "EPOCH": "2025-12-23T12:30:19.023264", "MEAN_MOTION": 15.19149386, "ECCENTRICITY": 0.00017705, "INCLINATION": 97.4442, "RA_OF_ASC_NODE": 2.7437, "ARG_OF_PERICENTER": 81.4954, "MEAN_ANOMALY": 278.6481, "EPHEMERIS_TYPE": 0, "CLASSIFICATION_TYPE": "U", "NORAD_CAT_ID": 31698, "ELEMENT_SET_NO": 999, "REV_AT_EPOCH": 2655, "BSTAR": 4.2968524e-05, "MEAN_MOTION_DOT": 8.35e-06, "MEAN_MOTION_DDOT": 0}, "tle": {"line1": "1 31698U 07026A   25357.52105351  .00000835  00000+0  42969-4 0  9995", "line2": "2 31698  97.4442   2.7437 0001770  81.4954 278.6481 15.19149386 26559"}}, "geometry": {"type": "Point", "coordinates": [6.426430378415583, -18.57132956060267]}}, {"type": "Feature", "properties": {"norad_id": 32060, "name": "WORLDVIEW-1 (WV-1)", "group": "resource", "lat": -28.163857840188538, "lon": -67.97094499825948, "alt_km": 501.7598607298851, "timestamp": "2025-12-24T16:52:41.156869+00:00", "meta": {"OBJECT_NAME": "WORLDVIEW-1 (WV-1)", "OBJECT_ID": "2007-041A", "EPOCH": "2025-12-24T06:30:41.321376", "MEAN_MOTION": 15.23940962, "ECCENTRICITY": 0.00032498, "INCLINATION": 97.3827, "RA_OF_ASC_NODE": 115.5844, "ARG_OF_PERICENTER": 358.1364, "MEAN_ANOMALY": 1.9861, "EPHEMERIS_TYPE": 0, "CLASSIFICATION_TYPE": "U", "NORAD_CAT_ID": 32060, "ELEMENT_SET_NO": 999, "REV_AT_EPOCH": 1623, "BSTAR": 0.00037398001, "MEAN_MOTION_DOT": 8.976e-05, "MEAN_MOTION_DDOT": 0}, "tle": {"line1": "1 32060U 07041A   25358.27131159  .00008976  00000+0  37398-3 0  9997", "line2": "2 32060  97.3827 115.5844 0003249 358.1364   1.9861 15.23940962 16233"}}, "geometry": {"type": "Point", "coordinates": [-67.97094499825948, -28.163857840188538]}}]}